start=new Date('2023-06-24T00:00:00.000Z').valueOf();
sats=[{"ECCENTRICITY":"0.00015460","OBJECT_NAME":"STARLINK-2055","TIME_SYSTEM":"UTC","SITE":"AFETR","COUNTRY_CODE":"US","CENTER_NAME":"EARTH","DECAY_DATE":null,"OBJECT_TYPE":"PAYLOAD","BSTAR":"0.00003025600000","PERIOD":"95.592","MEAN_ANOMALY":"269.5819","REV_AT_EPOCH":"13519","INCLINATION":"53.0532","SEMIMAJOR_AXIS":"6925.353","ELEMENT_SET_NO":"999","MEAN_MOTION":"15.06398533","EPOCH":"2023-06-23T16:25:16.129344","RCS_SIZE":"LARGE","CLASSIFICATION_TYPE":"U","MEAN_ELEMENT_THEORY":"SGP4","TLE_LINE1":"1 47358U 21005K   23174.68421446  .00000169  00000-0  30256-4 0  9993","EPHEMERIS_TYPE":"0","NORAD_CAT_ID":"47358","MEAN_MOTION_DOT":"0.00000169","ARG_OF_PERICENTER":"90.5347","RA_OF_ASC_NODE":"155.9162","MEAN_MOTION_DDOT":"0.0000000000000","OBJECT_ID":"2021-005K","APOAPSIS":"548.289","FILE":"3940923","TLE_LINE2":"2 47358  53.0532 155.9162 0001546  90.5347 269.5819 15.06398533135192","PERIAPSIS":"546.147","LAUNCH_DATE":"2021-01-20","GP_ID":"234507979","REF_FRAME":"TEME"},{"RA_OF_ASC_NODE":"183.8478","ARG_OF_PERICENTER":"90.6667","MEAN_MOTION_DOT":"0.00002286","NORAD_CAT_ID":"47359","EPHEMERIS_TYPE":"0","TLE_LINE1":"1 47359U 21005L   23174.03228462  .00002286  00000-0  17226-3 0  9999","MEAN_ELEMENT_THEORY":"SGP4","CLASSIFICATION_TYPE":"U","RCS_SIZE":"LARGE","EPOCH":"2023-06-23T00:46:29.391168","REF_FRAME":"TEME","GP_ID":"234497680","PERIAPSIS":"546.423","LAUNCH_DATE":"2021-01-20","TLE_LINE2":"2 47359  53.0524 183.8478 0001116  90.6667 269.4450 15.06405745134455","FILE":"3940498","APOAPSIS":"547.969","OBJECT_ID":"2021-005L","MEAN_MOTION_DDOT":"0.0000000000000","DECAY_DATE":null,"CENTER_NAME":"EARTH","COUNTRY_CODE":"US","SITE":"AFETR","TIME_SYSTEM":"UTC","OBJECT_NAME":"STARLINK-2069","ECCENTRICITY":"0.00011160","ELEMENT_SET_NO":"999","SEMIMAJOR_AXIS":"6925.331","MEAN_MOTION":"15.06405745","INCLINATION":"53.0524","REV_AT_EPOCH":"13445","MEAN_ANOMALY":"269.4450","PERIOD":"95.592","BSTAR":"0.00017226000000","OBJECT_TYPE":"PAYLOAD"},{"REF_FRAME":"TEME","GP_ID":"234508482","LAUNCH_DATE":"2021-01-20","PERIAPSIS":"546.336","TLE_LINE2":"2 47360  53.0539 151.1461 0001255  88.6061 271.5072 15.06402714134314","FILE":"3940924","APOAPSIS":"548.074","OBJECT_ID":"2021-005M","MEAN_MOTION_DDOT":"0.0000000000000","RA_OF_ASC_NODE":"151.1461","ARG_OF_PERICENTER":"88.6061","NORAD_CAT_ID":"47360","MEAN_MOTION_DOT":"-0.00000548","EPHEMERIS_TYPE":"0","TLE_LINE1":"1 47360U 21005M   23174.63585384 -.00000548  00000-0 -17908-4 0  9995","MEAN_ELEMENT_THEORY":"SGP4","CLASSIFICATION_TYPE":"U","RCS_SIZE":"LARGE","EPOCH":"2023-06-23T15:15:37.771776","MEAN_MOTION":"15.06402714","SEMIMAJOR_AXIS":"6925.340","ELEMENT_SET_NO":"999","INCLINATION":"53.0539","REV_AT_EPOCH":"13431","MEAN_ANOMALY":"271.5072","PERIOD":"95.592","BSTAR":"-0.00001790800000","OBJECT_TYPE":"PAYLOAD","DECAY_DATE":null,"CENTER_NAME":"EARTH","COUNTRY_CODE":"US","SITE":"AFETR","TIME_SYSTEM":"UTC","OBJECT_NAME":"STARLINK-2070","ECCENTRICITY":"0.00012550"},{"MEAN_MOTION":"15.06410843","SEMIMAJOR_AXIS":"6925.315","ELEMENT_SET_NO":"999","INCLINATION":"53.0538","REV_AT_EPOCH":"13514","MEAN_ANOMALY":"267.1115","PERIOD":"95.591","BSTAR":"0.00011521000000","OBJECT_TYPE":"PAYLOAD","CENTER_NAME":"EARTH","DECAY_DATE":null,"COUNTRY_CODE":"US","SITE":"AFETR","TIME_SYSTEM":"UTC","ECCENTRICITY":"0.00012060","OBJECT_NAME":"STARLINK-2071","REF_FRAME":"TEME","GP_ID":"234500981","PERIAPSIS":"546.345","LAUNCH_DATE":"2021-01-20","APOAPSIS":"548.016","FILE":"3940622","TLE_LINE2":"2 47361  53.0538 157.3772 0001206  93.0012 267.1115 15.06410843135142","MEAN_MOTION_DDOT":"0.0000000000000","OBJECT_ID":"2021-005N","RA_OF_ASC_NODE":"157.3772","ARG_OF_PERICENTER":"93.0012","MEAN_MOTION_DOT":"0.00001436","NORAD_CAT_ID":"47361","CLASSIFICATION_TYPE":"U","TLE_LINE1":"1 47361U 21005N   23174.36078344  .00001436  00000-0  11521-3 0  9998","MEAN_ELEMENT_THEORY":"SGP4","EPHEMERIS_TYPE":"0","RCS_SIZE":"LARGE","EPOCH":"2023-06-23T08:39:31.689216"},{"REV_AT_EPOCH":"13379","MEAN_ANOMALY":"280.6842","PERIOD":"95.591","INCLINATION":"53.0527","SEMIMAJOR_AXIS":"6925.292","ELEMENT_SET_NO":"999","MEAN_MOTION":"15.06418353","BSTAR":"0.00030588000000","OBJECT_TYPE":"PAYLOAD","CENTER_NAME":"EARTH","DECAY_DATE":null,"COUNTRY_CODE":"US","TIME_SYSTEM":"UTC","ECCENTRICITY":"0.00012500","OBJECT_NAME":"STARLINK-2076","SITE":"AFETR","GP_ID":"234500976","LAUNCH_DATE":"2021-01-20","PERIAPSIS":"546.292","REF_FRAME":"TEME","FILE":"3940622","APOAPSIS":"548.023","TLE_LINE2":"2 47362  53.0527 186.8751 0001250  79.4288 280.6842 15.06418353133797","MEAN_MOTION_DDOT":"0.0000000000000","OBJECT_ID":"2021-005P","MEAN_MOTION_DOT":"0.00004280","NORAD_CAT_ID":"47362","RA_OF_ASC_NODE":"186.8751","ARG_OF_PERICENTER":"79.4288","EPOCH":"2023-06-23T11:20:05.662464","CLASSIFICATION_TYPE":"U","TLE_LINE1":"1 47362U 21005P   23174.47228776  .00004280  00000-0  30588-3 0  9991","EPHEMERIS_TYPE":"0","MEAN_ELEMENT_THEORY":"SGP4","RCS_SIZE":"LARGE"},{"REV_AT_EPOCH":"13377","MEAN_ANOMALY":"263.6917","PERIOD":"95.592","SEMIMAJOR_AXIS":"6925.330","ELEMENT_SET_NO":"999","INCLINATION":"53.0531","MEAN_MOTION":"15.06405894","BSTAR":"0.00008598200000","OBJECT_TYPE":"PAYLOAD","CENTER_NAME":"EARTH","DECAY_DATE":null,"COUNTRY_CODE":"US","TIME_SYSTEM":"UTC","ECCENTRICITY":"0.00013710","OBJECT_NAME":"STARLINK-2077","SITE":"AFETR","GP_ID":"234501133","PERIAPSIS":"546.246","LAUNCH_DATE":"2021-01-20","REF_FRAME":"TEME","APOAPSIS":"548.145","FILE":"3940622","TLE_LINE2":"2 47363  53.0531 187.4572 0001371  96.4228 263.6917 15.06405894133776","MEAN_MOTION_DDOT":"0.0000000000000","OBJECT_ID":"2021-005Q","MEAN_MOTION_DOT":"0.00001000","NORAD_CAT_ID":"47363","RA_OF_ASC_NODE":"187.4572","ARG_OF_PERICENTER":"96.4228","EPOCH":"2023-06-23T08:14:19.828320","CLASSIFICATION_TYPE":"U","MEAN_ELEMENT_THEORY":"SGP4","TLE_LINE1":"1 47363U 21005Q   23174.34328505  .00001000  00000-0  85982-4 0  9995","EPHEMERIS_TYPE":"0","RCS_SIZE":"LARGE"},{"GP_ID":"234503627","PERIAPSIS":"546.445","LAUNCH_DATE":"2021-01-20","REF_FRAME":"TEME","TLE_LINE2":"2 47366  53.0527 187.6333 0001082  84.0153 276.0959 15.06406195133768","APOAPSIS":"547.944","FILE":"3940722","OBJECT_ID":"2021-005T","MEAN_MOTION_DDOT":"0.0000000000000","MEAN_MOTION_DOT":"0.00001818","NORAD_CAT_ID":"47366","ARG_OF_PERICENTER":"84.0153","RA_OF_ASC_NODE":"187.6333","EPOCH":"2023-06-23T07:15:56.803392","MEAN_ELEMENT_THEORY":"SGP4","TLE_LINE1":"1 47366U 21005T   23174.30274078  .00001818  00000-0  14087-3 0  9993","EPHEMERIS_TYPE":"0","CLASSIFICATION_TYPE":"U","RCS_SIZE":"LARGE","REV_AT_EPOCH":"13376","PERIOD":"95.592","MEAN_ANOMALY":"276.0959","ELEMENT_SET_NO":"999","SEMIMAJOR_AXIS":"6925.330","MEAN_MOTION":"15.06406195","INCLINATION":"53.0527","BSTAR":"0.00014087000000","OBJECT_TYPE":"PAYLOAD","DECAY_DATE":null,"CENTER_NAME":"EARTH","COUNTRY_CODE":"US","TIME_SYSTEM":"UTC","OBJECT_NAME":"STARLINK-2081","ECCENTRICITY":"0.00010820","SITE":"AFETR"},{"EPOCH":"2023-06-23T17:26:20.540832","RCS_SIZE":"LARGE","CLASSIFICATION_TYPE":"U","MEAN_ELEMENT_THEORY":"SGP4","TLE_LINE1":"1 47367U 21005U   23174.72662663  .00000506  00000-0  52833-4 0  9996","EPHEMERIS_TYPE":"0","NORAD_CAT_ID":"47367","MEAN_MOTION_DOT":"0.00000506","ARG_OF_PERICENTER":"80.2392","RA_OF_ASC_NODE":"185.7370","MEAN_MOTION_DDOT":"0.0000000000000","OBJECT_ID":"2021-005U","APOAPSIS":"548.010","FILE":"3940938","TLE_LINE2":"2 47367  53.0520 185.7370 0001160  80.2392 279.8728 15.06402255133838","PERIAPSIS":"546.403","LAUNCH_DATE":"2021-01-20","GP_ID":"234508517","REF_FRAME":"TEME","ECCENTRICITY":"0.00011600","OBJECT_NAME":"STARLINK-2082","TIME_SYSTEM":"UTC","SITE":"AFETR","COUNTRY_CODE":"US","CENTER_NAME":"EARTH","DECAY_DATE":null,"OBJECT_TYPE":"PAYLOAD","BSTAR":"0.00005283300000","MEAN_ANOMALY":"279.8728","PERIOD":"95.592","REV_AT_EPOCH":"13383","MEAN_MOTION":"15.06402255","SEMIMAJOR_AXIS":"6925.342","ELEMENT_SET_NO":"999","INCLINATION":"53.0520"},{"SEMIMAJOR_AXIS":"6925.333","MEAN_MOTION":"15.06405168","ELEMENT_SET_NO":"999","INCLINATION":"53.0520","REV_AT_EPOCH":"13467","MEAN_ANOMALY":"270.4182","PERIOD":"95.592","BSTAR":"0.00014535000000","OBJECT_TYPE":"PAYLOAD","CENTER_NAME":"EARTH","DECAY_DATE":null,"COUNTRY_CODE":"US","SITE":"AFETR","TIME_SYSTEM":"UTC","ECCENTRICITY":"0.00011360","OBJECT_NAME":"STARLINK-2084","REF_FRAME":"TEME","GP_ID":"234495291","LAUNCH_DATE":"2021-01-20","PERIAPSIS":"546.411","APOAPSIS":"547.984","FILE":"3940359","TLE_LINE2":"2 47368  53.0520 188.7443 0001136  89.6937 270.4182 15.06405168134674","MEAN_MOTION_DDOT":"0.0000000000000","OBJECT_ID":"2021-005V","ARG_OF_PERICENTER":"89.6937","RA_OF_ASC_NODE":"188.7443","MEAN_MOTION_DOT":"0.00001885","NORAD_CAT_ID":"47368","CLASSIFICATION_TYPE":"U","MEAN_ELEMENT_THEORY":"SGP4","TLE_LINE1":"1 47368U 21005V   23174.05579007  .00001885  00000-0  14535-3 0  9999","EPHEMERIS_TYPE":"0","RCS_SIZE":"LARGE","EPOCH":"2023-06-23T01:20:20.262048"},{"BSTAR":"0.00016097000000","OBJECT_TYPE":"PAYLOAD","REV_AT_EPOCH":"13500","MEAN_ANOMALY":"273.6479","PERIOD":"95.592","SEMIMAJOR_AXIS":"6925.326","INCLINATION":"53.0524","ELEMENT_SET_NO":"999","MEAN_MOTION":"15.06407494","TIME_SYSTEM":"UTC","ECCENTRICITY":"0.00010550","OBJECT_NAME":"STARLINK-2085","SITE":"AFETR","CENTER_NAME":"EARTH","DECAY_DATE":null,"COUNTRY_CODE":"US","APOAPSIS":"547.921","FILE":"3940722","TLE_LINE2":"2 47369  53.0524 167.8220 0001055  86.4631 273.6479 15.06407494135002","MEAN_MOTION_DDOT":"0.0000000000000","OBJECT_ID":"2021-005W","GP_ID":"234503409","PERIAPSIS":"546.460","LAUNCH_DATE":"2021-01-20","REF_FRAME":"TEME","EPOCH":"2023-06-23T06:13:32.210976","CLASSIFICATION_TYPE":"U","TLE_LINE1":"1 47369U 21005W   23174.25940059  .00002118  00000-0  16097-3 0  9996","MEAN_ELEMENT_THEORY":"SGP4","EPHEMERIS_TYPE":"0","RCS_SIZE":"LARGE","NORAD_CAT_ID":"47369","MEAN_MOTION_DOT":"0.00002118","ARG_OF_PERICENTER":"86.4631","RA_OF_ASC_NODE":"167.8220"}];
